OBJECT_NAME,OBJECT_ID,EPOCH,MEAN_MOTION,ECCENTRICITY,INCLINATION,RA_OF_ASC_NODE,ARG_OF_PERICENTER,MEAN_ANOMALY,EPHEMERIS_TYPE,CLASSIFICATION_TYPE,NORAD_CAT_ID,ELEMENT_SET_NO,REV_AT_EPOCH,BSTAR,MEAN_MOTION_DOT,MEAN_MOTION_DDOT
STARLINK-5878,2023-037AT,2026-06-07T02:10:28.759296,14.98333058,.0002897,70.0003,39.0851,271.0109,89.0718,0,U,55955,999,17786,.49625E-4,.499E-5,0
STARLINK-5883,2023-037AU,2026-06-07T09:35:05.129088,14.98329958,.0003,69.9995,38.1561,269.9656,90.1159,0,U,55956,999,17791,.57517E-5,-.24E-6,0
STARLINK-5884,2023-037AV,2026-06-07T00:40:21.143136,14.98332871,.0002885,70.0009,39.2689,266.5703,93.5126,0,U,55957,999,17785,.58164E-4,.601E-5,0
STARLINK-5928,2023-037AW,2026-06-07T02:04:28.093728,14.98331030,.0003006,70.0001,39.0711,268.2990,91.7825,0,U,55958,999,17786,.21202E-4,.16E-5,0
STARLINK-5929,2023-037AX,2026-06-07T09:59:07.704096,14.98330913,.0002903,70.0000,38.2149,270.3167,89.7659,0,U,55959,999,17791,.38753E-4,.369E-5,0
STARLINK-5938,2023-037AY,2026-06-07T00:40:34.909248,14.98326661,.0002856,70.0016,39.2520,265.7830,94.3002,0,U,55960,999,17785,-.33556E-4,-.493E-5,0
STARLINK-5933,2023-037AZ,2026-06-07T00:04:17.730336,14.98331369,.0002589,70.0009,39.1818,273.3670,86.7192,0,U,55961,999,17785,.23613E-4,.189E-5,0
STARLINK-5906,2023-037BA,2026-06-07T08:59:03.139296,14.98333691,.0002501,70.0025,38.4710,244.4594,115.6306,0,U,55962,999,17790,.18911E-4,.133E-5,0
STARLINK-5924,2023-037BB,2026-06-07T09:53:07.353024,14.98330379,.0002793,70.0000,38.2011,271.8665,88.2174,0,U,55963,999,17791,.51282E-4,.519E-5,0
STARLINK-5895,2023-037BC,2026-06-07T08:46:21.971712,15.10213222,.0005039,69.9951,30.7788,207.7821,152.3075,0,U,55964,999,17809,.71783E-3,.11674E-3,0
STARLINK-5894,2023-037BD,2026-06-07T09:29:04.488576,14.98329492,.0002942,70.0002,38.1414,271.4902,88.5920,0,U,55965,999,17791,.68573E-5,-.11E-6,0
SES-18,2023-038A,2026-06-07T09:30:54.296928,1.00271749,.0000334,0.0170,318.8483,38.9726,297.6183,0,U,55970,999,1200,0,-.87E-6,0
SES-19,2023-038B,2026-06-07T09:19:08.357088,1.00271432,.0001763,0.0231,299.1418,141.1599,180.3795,0,U,55971,999,1199,0,.102E-5,0
TIANMU-1 03,2023-039A,2026-06-07T11:28:14.346048,15.47009719,.0004093,97.5237,332.0694,123.3023,236.8619,0,U,55973,999,17933,.31455E-3,.15806E-3,0
TIANMU-1 04,2023-039B,2026-06-07T12:51:33.056064,15.47599002,.0004716,97.5174,331.2827,120.1841,239.9877,0,U,55974,999,17935,.31257E-3,.16031E-3,0
TIANMU-1 05,2023-039C,2026-06-07T12:33:01.203840,15.46937289,.0003745,97.5218,331.7349,137.8278,222.3260,0,U,55975,999,17932,.30627E-3,.15347E-3,0
TIANMU-1 06,2023-039D,2026-06-07T11:22:27.374880,15.47504973,.0003995,97.5226,332.3099,134.6027,225.5549,0,U,55976,999,17934,.31703E-3,.16207E-3,0
COSMOS 2567,2023-040A,2026-06-07T12:19:43.745664,15.24832792,.0002732,97.5888,84.5332,101.0650,259.0895,0,U,55978,999,17858,.17257E-3,.421E-4,0
GLOBAL-19,2023-041B,2026-06-06T18:32:56.695488,15.38119609,.00090186,42.0027,262.6048,291.1397,68.8479,0,U,55982,999,18032,.4278986E-3,.16213E-3,0
GLOBAL-5,2023-041C,2026-06-07T00:00:57.951936,15.38179031,.0010337,42.0032,260.8112,287.5684,72.4026,0,U,55983,999,18036,.50756E-3,.19336E-3,0
STARLINK-5905,2023-042A,2026-06-07T01:20:31.697088,15.27584883,.0002046,43.0028,275.1778,271.3261,88.7356,0,U,55986,999,17735,.63524E-4,.1486E-4,0
STARLINK-5915,2023-042B,2026-06-07T00:50:55.885056,15.27575411,.0001248,43.0014,275.0406,271.3392,88.7316,0,U,55987,999,17653,-.27842E-5,-.339E-5,0
STARLINK-5916,2023-042C,2026-06-06T11:56:49.759296,15.27578628,.00014317,43.0017,282.1559,274.1216,85.9472,0,U,55988,999,17640,.21995319E-4,.343E-5,0
STARLINK-5947,2023-042D,2026-06-07T00:45:21.835008,15.27569356,.0002579,42.9946,275.0149,266.8304,93.2253,0,U,55989,999,17653,.22916E-4,.368E-5,0
STARLINK-5946,2023-042E,2026-06-06T15:05:38.312160,15.27582194,.0001504,43.0028,277.1522,279.3456,80.7226,0,U,55990,999,17647,.14629E-4,.14E-5,0
STARLINK-5948,2023-042F,2026-06-07T00:47:55.372128,15.27586645,.0002106,43.0047,271.6138,271.8168,88.2442,0,U,55991,999,17657,.51668E-4,.116E-4,0
STARLINK-5969,2023-042H,2026-06-06T15:14:53.471904,15.27578814,.0001128,43.0033,277.2001,273.7986,86.2737,0,U,55993,999,17647,.23803E-4,.393E-5,0
STARLINK-5956,2023-042J,2026-06-06T01:24:08.104032,15.27576132,.0001821,43.0047,280.6063,271.1317,88.9326,0,U,55994,999,17638,.28921E-5,-.183E-5,0
STARLINK-5903,2023-042L,2026-06-07T00:23:12.043104,15.27570785,.0001309,42.9947,274.8973,259.2200,100.8504,0,U,55996,999,17652,-.56964E-5,-.419E-5,0
STARLINK-5902,2023-042N,2026-06-06T15:03:47.251008,15.27579472,.0000845,43.0052,277.1360,275.9252,84.1503,0,U,55998,999,17647,.1478E-4,.145E-5,0
