STARLINK-5878           
1 55955U 23037AT  26158.09061064  .00000499  00000+0  49625-4 0  9993
2 55955  70.0003  39.0851 0002897 271.0109  89.0718 14.98333058177869
STARLINK-5883           
1 55956U 23037AU  26158.39936492 -.00000024  00000+0  57517-5 0  9998
2 55956  69.9995  38.1561 0003000 269.9656  90.1159 14.98329958177917
STARLINK-5884           
1 55957U 23037AV  26158.02802249  .00000601  00000+0  58164-4 0  9999
2 55957  70.0009  39.2689 0002885 266.5703  93.5126 14.98332871177858
STARLINK-5928           
1 55958U 23037AW  26158.08643627  .00000160  00000+0  21202-4 0  9992
2 55958  70.0001  39.0711 0003006 268.2990  91.7825 14.98331030177861
STARLINK-5929           
1 55959U 23037AX  26158.41606139  .00000369  00000+0  38753-4 0  9997
2 55959  70.0000  38.2149 0002903 270.3167  89.7659 14.98330913177919
STARLINK-5938           
1 55960U 23037AY  26158.02818182 -.00000493  00000+0 -33556-4 0  9995
2 55960  70.0016  39.2520 0002856 265.7830  94.3002 14.98326661177856
STARLINK-5933           
1 55961U 23037AZ  26158.00298299  .00000189  00000+0  23613-4 0  9998
2 55961  70.0009  39.1818 0002589 273.3670  86.7192 14.98331369177854
STARLINK-5906           
1 55962U 23037BA  26158.37434189  .00000133  00000+0  18911-4 0  9993
2 55962  70.0025  38.4710 0002501 244.4594 115.6306 14.98333691177909
STARLINK-5924           
1 55963U 23037BB  26158.41189066  .00000519  00000+0  51282-4 0  9996
2 55963  70.0000  38.2011 0002793 271.8665  88.2174 14.98330379177910
STARLINK-5895           
1 55964U 23037BC  26158.36553208  .00011674  00000+0  71783-3 0  9995
2 55964  69.9951  30.7788 0005039 207.7821 152.3075 15.10213222178094
STARLINK-5894           
1 55965U 23037BD  26158.39519084 -.00000011  00000+0  68573-5 0  9992
2 55965  70.0002  38.1414 0002942 271.4902  88.5920 14.98329492177912
SES-18                  
1 55970U 23038A   26158.39646177 -.00000087  00000+0  00000+0 0  9991
2 55970   0.0170 318.8483 0000334  38.9726 297.6183  1.00271749 12006
SES-19                  
1 55971U 23038B   26158.38829117  .00000102  00000+0  00000+0 0  9995
2 55971   0.0231 299.1418 0001763 141.1599 180.3795  1.00271432 11999
TIANMU-1 03             
1 55973U 23039A   26158.47794382  .00015806  00000+0  31455-3 0  9992
2 55973  97.5237 332.0694 0004093 123.3023 236.8619 15.47009719179332
TIANMU-1 04             
1 55974U 23039B   26158.53579926  .00016031  00000+0  31257-3 0  9996
2 55974  97.5174 331.2827 0004716 120.1841 239.9877 15.47599002179358
TIANMU-1 05             
1 55975U 23039C   26158.52293060  .00015347  00000+0  30627-3 0  9997
2 55975  97.5218 331.7349 0003745 137.8278 222.3260 15.46937289179323
TIANMU-1 06             
1 55976U 23039D   26158.47392795  .00016207  00000+0  31703-3 0  9999
2 55976  97.5226 332.3099 0003995 134.6027 225.5549 15.47504973179344
COSMOS 2567             
1 55978U 23040A   26158.51370076  .00004210  00000+0  17257-3 0  9995
2 55978  97.5888  84.5332 0002732 101.0650 259.0895 15.24832792178583
GLOBAL-19               
1 55982U 23041B   26157.77287842  .00016213  00000+0  42790-3 0  9992
2 55982  42.0027 262.6048 0009018 291.1397  68.8479 15.38119609180323
GLOBAL-5                
1 55983U 23041C   26158.00067074  .00019336  00000+0  50756-3 0  9993
2 55983  42.0032 260.8112 0010337 287.5684  72.4026 15.38179031180364
STARLINK-5905           
1 55986U 23042A   26158.05592242  .00001486  00000+0  63524-4 0  9997
2 55986  43.0028 275.1778 0002046 271.3261  88.7356 15.27584883177354
STARLINK-5915           
1 55987U 23042B   26158.03536904 -.00000339  00000+0 -27842-5 0  9991
2 55987  43.0014 275.0406 0001248 271.3392  88.7316 15.27575411176537
STARLINK-5916           
1 55988U 23042C   26157.49779814  .00000343  00000+0  21995-4 0  9995
2 55988  43.0017 282.1559 0001431 274.1216  85.9472 15.27578628176400
STARLINK-5947           
1 55989U 23042D   26158.03150272  .00000368  00000+0  22916-4 0  9999
2 55989  42.9946 275.0149 0002579 266.8304  93.2253 15.27569356176537
STARLINK-5946           
1 55990U 23042E   26157.62891565  .00000140  00000+0  14629-4 0  9992
2 55990  43.0028 277.1522 0001504 279.3456  80.7226 15.27582194176473
STARLINK-5948           
1 55991U 23042F   26158.03327977  .00001160  00000+0  51668-4 0  9997
2 55991  43.0047 271.6138 0002106 271.8168  88.2442 15.27586645176572
STARLINK-5969           
1 55993U 23042H   26157.63534111  .00000393  00000+0  23803-4 0  9991
2 55993  43.0033 277.2001 0001128 273.7986  86.2737 15.27578814176475
STARLINK-5956           
1 55994U 23042J   26157.05842713 -.00000183  00000+0  28921-5 0  9993
2 55994  43.0047 280.6063 0001821 271.1317  88.9326 15.27576132176381
STARLINK-5903           
1 55996U 23042L   26158.01611161 -.00000419  00000+0 -56964-5 0  9994
2 55996  42.9947 274.8973 0001309 259.2200 100.8504 15.27570785176520
STARLINK-5902           
1 55998U 23042N   26157.62763022  .00000145  00000+0  14780-4 0  9999
2 55998  43.0052 277.1360 0000845 275.9252  84.1503 15.27579472176472
